NORAD_CAT_ID,OBJECT_NAME,OBJECT_TYPE,EPOCH,MEAN_MOTION,ECCENTRICITY,INCLINATION,RA_OF_ASC_NODE,ARG_OF_PERICENTER,MEAN_ANOMALY,BSTAR,MEAN_MOTION_DOT,MEAN_MOTION_DDOT,TLE_LINE0,TLE_LINE1,TLE_LINE2,SEMIMAJOR_AXIS,PERIOD,APOGEE,PERIGEE,DECAYED
53404.0,STARLINK-4509,PAYLOAD,2022-11-16 12:11:45,15.08837406,0.0001951,53.2143,142.3483,49.1036,311.0125,0.00010269,1.346e-05,0.0,0 STARLINK-4509,1 53404U 22097S   22320.50816062  .00001346  00000-0  10269-3 0  9998,2 53404  53.2143 142.3483 0001951  49.1036 311.0125 15.08837406 15618,6917.888000000001,95.438,541.1030000000002,538.404,0.0
53404.0,STARLINK-4509,PAYLOAD,2022-11-16 18:33:17,15.08841022,0.0001977,53.2143,141.1589,49.5385,310.578,0.00010649,1.407e-05,0.0,0 STARLINK-4509,1 53404U 22097S   22320.77311819  .00001407  00000-0  10649-3 0  9997,2 53404  53.2143 141.1589 0001977  49.5385 310.5780 15.08841022 16140,6917.877,95.437,541.11,538.375,0.0
53404.0,STARLINK-4509,PAYLOAD,2022-11-17 05:40:59,15.08843664,0.0002005,53.2143,139.0774,49.4125,310.7042,8.2374e-05,1.023e-05,0.0,0 STARLINK-4509,1 53404U 22097S   22321.23679648  .00001023  00000-0  82374-4 0  9995,2 53404  53.2143 139.0774 0002005  49.4125 310.7042 15.08843664 16211,6917.869000000002,95.437,541.121,538.347,0.0
53404.0,STARLINK-4509,PAYLOAD,2022-11-17 15:13:17,15.08848453,0.0002028,53.2144,137.293,50.0493,310.0677,9.1312e-05,1.166e-05,0.0,0 STARLINK-4509,1 53404U 22097S   22321.63423046  .00001166  00000-0  91312-4 0  9998,2 53404  53.2144 137.2930 0002028  50.0493 310.0677 15.08848453 16271,6917.855,95.437,541.122,538.317,0.0
53404.0,STARLINK-4509,PAYLOAD,2022-11-17 23:10:13,15.08837932,0.0002451,53.215,135.8074,42.197,317.921,-1.2364e-05,-4.85e-06,0.0,0 STARLINK-4509,1 53404U 22097S   22321.96543836 -.00000485  00000-0 -12364-4 0  9999,2 53404  53.2150 135.8074 0002451  42.1970 317.9210 15.08837932 15833,6917.887,95.438,541.447,538.056,0.0
53404.0,STARLINK-4509,PAYLOAD,2022-11-19 10:08:42,15.08800628,0.0002159,53.2143,129.2623,62.703,297.4182,0.00054713,8.421e-05,0.0,0 STARLINK-4509,1 53404U 22097S   22323.42270864  .00008421  00000-0  54713-3 0  9999,2 53404  53.2143 129.2623 0002159  62.7030 297.4182 15.08800628 16543,6918.001,95.44,541.359,538.372,0.0
53404.0,STARLINK-4509,PAYLOAD,2022-11-19 21:16:23,15.088478,0.0002183,53.2151,127.1818,46.9348,313.1826,-4.1723e-05,-9.52e-06,0.0,0 STARLINK-4509,1 53404U 22097S   22323.88638839 -.00000952  00000-0 -41723-4 0  9990,2 53404  53.2151 127.1818 0002183  46.9348 313.1826 15.08847800 16126,6917.857,95.437,541.232,538.211,0.0
53404.0,STARLINK-4509,PAYLOAD,2022-11-20 13:10:16,15.08832667,0.000193,53.2141,124.2089,48.2369,311.8788,-6.4155e-05,-1.309e-05,0.0,0 STARLINK-4509,1 53404U 22097S   22324.54880004 -.00001309  00000-0 -64155-4 0  9998,2 53404  53.2141 124.2089 0001930  48.2369 311.8788 15.08832667 16228,6917.903,95.438,541.1030000000002,538.433,0.0
53404.0,STARLINK-4509,PAYLOAD,2022-11-20 17:56:25,15.08835484,0.0001864,53.2142,123.3163,49.1822,310.9332,-4.2328e-05,-9.62e-06,0.0,0 STARLINK-4509,1 53404U 22097S   22324.74751776 -.00000962  00000-0 -42328-4 0  9995,2 53404  53.2142 123.3163 0001864  49.1822 310.9332 15.08835484 16744,6917.894,95.438,541.049,538.47,0.0
53404.0,STARLINK-4509,PAYLOAD,2022-11-21 03:28:44,15.08838725,0.0001929,53.2145,121.5318,49.6851,310.4309,-5.9522e-06,-3.83e-06,0.0,0 STARLINK-4509,1 53404U 22097S   22325.14495483 -.00000383  00000-0 -59522-5 0  9992,2 53404  53.2145 121.5318 0001929  49.6851 310.4309 15.08838725 16311,6917.884,95.438,541.0840000000002,538.415,0.0
53404.0,STARLINK-4509,PAYLOAD,2022-11-21 09:50:16,15.08839682,0.0001929,53.2146,120.3422,49.8725,310.2436,-7.3863e-06,-4.06e-06,0.0,0 STARLINK-4509,1 53404U 22097S   22325.40991456 -.00000406  00000-0 -73863-5 0  9992,2 53404  53.2146 120.3422 0001929  49.8725 310.2436 15.08839682 16847,6917.880999999999,95.438,541.081,538.4119999999998,0.0
53404.0,STARLINK-4509,PAYLOAD,2022-11-21 19:22:34,15.08844395,0.0001946,53.2149,118.5582,50.7139,309.4026,3.1569e-05,2.14e-06,0.0,0 STARLINK-4509,1 53404U 22097S   22325.80734949  .00000214  00000-0  31569-4 0  9999,2 53404  53.2149 118.5582 0001946  50.7139 309.4026 15.08844395 16904,6917.8669999999975,95.437,541.078,538.386,0.0
53404.0,STARLINK-4509,PAYLOAD,2022-11-22 03:19:30,15.0884168,0.000198,53.2149,117.0704,49.472,310.6445,0.00012742,1.74e-05,0.0,0 STARLINK-4509,1 53404U 22097S   22326.13854697  .00001740  00000-0  12742-3 0  9995,2 53404  53.2149 117.0704 0001980  49.4720 310.6445 15.08841680 16467,6917.875,95.437,541.11,538.371,0.0
53404.0,STARLINK-4509,PAYLOAD,2022-11-22 11:16:26,15.08835872,0.000203,53.2152,115.5835,50.2513,309.8658,2.0915e-05,4.5e-07,0.0,0 STARLINK-4509,1 53404U 22097S   22326.46975501  .00000045  00000-0  20915-4 0  9998,2 53404  53.2152 115.5835 0002030  50.2513 309.8658 15.08835872 16514,6917.893,95.438,541.1619999999998,538.354,0.0
53404.0,STARLINK-4509,PAYLOAD,2022-11-22 17:37:59,15.08833892,0.0002022,53.2154,114.3942,49.7667,310.3502,4.0833e-06,-2.23e-06,0.0,0 STARLINK-4509,1 53404U 22097S   22326.73471740 -.00000223  00000-0  40833-5 0  9995,2 53404  53.2154 114.3942 0002022  49.7667 310.3502 15.08833892 17040,6917.899,95.438,541.163,538.365,0.0
53404.0,STARLINK-4509,PAYLOAD,2022-11-23 09:31:50,15.08840934,0.0002099,53.2157,111.4207,50.0702,310.0475,1.4991e-05,-5e-07,0.0,0 STARLINK-4509,1 53404U 22097S   22327.39711332 -.00000050  00000-0  14991-4 0  9995,2 53404  53.2157 111.4207 0002099  50.0702 310.0475 15.08840934 17146,6917.878000000002,95.437,541.195,538.29,0.0
53404.0,STARLINK-4509,PAYLOAD,2022-11-23 17:28:45,15.08846404,0.0002006,53.2154,109.9339,48.8301,311.2863,7.919299999999999e-06,-1.62e-06,0.0,0 STARLINK-4509,1 53404U 22097S   22327.72830889 -.00000162  00000-0  79193-5 0  9991,2 53404  53.2154 109.9339 0002006  48.8301 311.2863 15.08846404 16702,6917.861,95.437,541.114,538.3380000000002,0.0
53404.0,STARLINK-4509,PAYLOAD,2022-11-24 09:22:38,15.08832313,0.0002076,53.2153,106.9599,50.7472,309.3704,-9.4183e-06,-4.38e-06,0.0,0 STARLINK-4509,1 53404U 22097S   22328.39071850 -.00000438  00000-0 -94183-5 0  9993,2 53404  53.2153 106.9599 0002076  50.7472 309.3704 15.08832313 16801,6917.904,95.438,541.205,538.3330000000002,0.0
53404.0,STARLINK-4509,PAYLOAD,2022-11-24 15:44:10,15.0883604,0.0002044,53.215,105.77,52.5634,307.5544,2.4346e-05,9.9e-07,0.0,0 STARLINK-4509,1 53404U 22097S   22328.65567551  .00000099  00000-0  24346-4 0  9994,2 53404  53.2150 105.7700 0002044  52.5634 307.5544 15.08836040 17336,6917.892,95.438,541.172,538.3430000000002,0.0
53404.0,STARLINK-4509,PAYLOAD,2022-11-25 02:51:52,15.08837748,0.0002052,53.2151,103.689,49.6796,310.4375,2.9042e-05,1.74e-06,0.0,0 STARLINK-4509,1 53404U 22097S   22329.11935516  .00000174  00000-0  29042-4 0  9998,2 53404  53.2151 103.6890 0002052  49.6796 310.4375 15.08837748 16913,6917.887,95.438,541.172,538.3330000000002,0.0
53404.0,STARLINK-4509,PAYLOAD,2022-11-25 12:24:10,15.08841764,0.0002128,53.2146,101.9043,52.0377,308.0807,1.0233e-05,-1.25e-06,0.0,0 STARLINK-4509,1 53404U 22097S   22329.51679348 -.00000125  00000-0  10233-4 0  9999,2 53404  53.2146 101.9043 0002128  52.0377 308.0807 15.08841764 17462,6917.875,95.437,541.212,538.268,0.0
53404.0,STARLINK-4509,PAYLOAD,2022-11-25 15:34:57,15.08837764,0.000209,53.2146,101.3097,50.4411,309.6766,-2.5946e-05,-7.01e-06,0.0,0 STARLINK-4509,1 53404U 22097S   22329.64927721 -.00000701  00000-0 -25946-4 0  9992,2 53404  53.2146 101.3097 0002090  50.4411 309.6766 15.08837764 17482,6917.887,95.438,541.198,538.306,0.0
53404.0,STARLINK-4509,PAYLOAD,2022-11-26 18:36:29,15.08847598,0.0001993,53.2157,96.2545,45.9277,314.1879,0.00010128,1.324e-05,0.0,0 STARLINK-4509,1 53404U 22097S   22330.77534659  .00001324  00000-0  10128-3 0  9997,2 53404  53.2157  96.2545 0001993  45.9277 314.1879 15.08847598 17161,6917.857,95.437,541.101,538.3430000000002,0.0
53404.0,STARLINK-4509,PAYLOAD,2022-11-27 08:54:58,15.0883949,0.0001742,53.215,93.5765,43.5453,316.5677,4.5178e-05,4.31e-06,0.0,0 STARLINK-4509,1 53404U 22097S   22331.37151089  .00000431  00000-0  45178-4 0  9998,2 53404  53.2150  93.5765 0001742  43.5453 316.5677 15.08839490 17254,6917.882,95.438,540.952,538.5419999999998,0.0
53404.0,STARLINK-4509,PAYLOAD,2022-11-27 13:41:08,15.08833412,0.0001828,53.2155,92.6843,41.7158,318.3973,-1.6962e-06,-3.15e-06,0.0,0 STARLINK-4509,1 53404U 22097S   22331.57023668 -.00000315  00000-0 -16962-5 0  9994,2 53404  53.2155  92.6843 0001828  41.7158 318.3973 15.08833412 17283,6917.901,95.438,541.03,538.501,0.0
53404.0,STARLINK-4509,PAYLOAD,2022-11-28 08:45:46,15.08840123,0.0001924,53.216,89.1155,43.9644,316.15,-8.284799999999999e-05,-1.606e-05,0.0,0 STARLINK-4509,1 53404U 22097S   22332.36511819 -.00001606  00000-0 -82848-4 0  9991,2 53404  53.2160  89.1155 0001924  43.9644 316.1500 15.08840123 17893,6917.88,95.438,541.076,538.414,0.0
53404.0,STARLINK-4509,PAYLOAD,2022-11-29 00:39:37,15.08839122,0.0002002,53.2162,86.1426,42.4304,317.6843,-5.4166e-05,-1.15e-05,0.0,0 STARLINK-4509,1 53404U 22097S   22333.02751838 -.00001150  00000-0 -54166-4 0  9998,2 53404  53.2162  86.1426 0002002  42.4304 317.6843 15.08839122 17509,6917.8830000000025,95.438,541.133,538.363,0.0
53404.0,STARLINK-4509,PAYLOAD,2022-11-29 08:36:33,15.08835532,0.0001957,53.2158,84.656,40.5798,319.534,9.5576e-05,1.233e-05,0.0,0 STARLINK-4509,1 53404U 22097S   22333.35871549  .00001233  00000-0  95576-4 0  9996,2 53404  53.2158  84.6560 0001957  40.5798 319.5340 15.08835532 18044,6917.894,95.438,541.113,538.405,0.0
53404.0,STARLINK-4509,PAYLOAD,2022-11-29 13:22:42,15.08840673,0.0001959,53.2162,83.7639,41.7447,318.3694,0.00012223,1.658e-05,0.0,0 STARLINK-4509,1 53404U 22097S   22333.55743189  .00001658  00000-0  12223-3 0  9994,2 53404  53.2162  83.7639 0001959  41.7447 318.3694 15.08840673 17581,6917.878000000002,95.438,541.099,538.388,0.0
